STARLINK-6320           
1 57336U 23099J   25272.69874816  .00000622  00000+0  61107-4 0  9992
2 57336  43.0037  43.3655 0001031 251.2980 108.7751 15.02535254121905
STARLINK-6322           
1 57337U 23099K   25273.06887715  .00000151  00000+0  26269-4 0  9994
2 57337  43.0048  41.8601 0002539 259.9755 100.0801 15.02538826121955
STARLINK-6374           
1 57338U 23099L   25272.39965996  .00000602  00000+0  59623-4 0  9999
2 57338  43.0046  45.4373 0001960 275.6438  84.4180 15.02535807121850
STARLINK-6332           
1 57339U 23099M   25273.07108999  .00001256  00000+0  10798-3 0  9993
2 57339  43.0042  41.8757 0001253 276.4580  83.6120 15.02543545121959
STARLINK-6321           
1 57340U 23099N   25272.71984159 -.00000535  00000+0 -24543-4 0  9990
2 57340  43.0043  43.5393 0001156 265.2173  94.8538 15.02532460121909
STARLINK-6377           
1 57341U 23099P   25272.65890933  .00001252  00000+0  10771-3 0  9992
2 57341  43.0023  43.9398 0000965 252.3977 107.6760 15.02539007121895
STARLINK-6375           
1 57342U 23099Q   25272.76966700  .00000245  00000+0  33233-4 0  9991
2 57342  43.0062  43.0534 0002029 279.6089  80.4524 15.02540943121911
STARLINK-6379           
1 57343U 23099R   25272.72205716  .00000098  00000+0  22381-4 0  9999
2 57343  43.0064  43.5558 0002036 272.4864  87.5745 15.02537440121905
STARLINK-6380           
1 57344U 23099S   25272.44726625  .00000400  00000+0  44699-4 0  9999
2 57344  43.0043  44.9321 0001198 264.1918  95.8787 15.02537582121862
STARLINK-6373           
1 57345U 23099T   25272.45059944 -.00000095  00000+0  80571-5 0  9995
2 57345  43.0061  44.9604 0001456 274.6627  85.4049 15.02537974121868
STARLINK-6359           
1 57346U 23099U   25272.69650449  .00001948  00000+0  15921-3 0  9991
2 57346  43.0101  43.3601 0003198 275.5027  84.5451 15.02551990121909
STARLINK-6378           
1 57347U 23099V   25272.44282452  .00000266  00000+0  34747-4 0  9990
2 57347  42.9988  44.8910 0002145 166.6582 193.4318 15.02535864121866
STARLINK-6372           
1 57348U 23099W   25273.08984058  .00000392  00000+0  44070-4 0  9993
2 57348  43.0066  41.1542 0002166 266.5619  93.4975 15.02543915121966
STARLINK-6376           
1 57349U 23099X   25272.69320039  .00001061  00000+0  93612-4 0  9993
2 57349  43.0053  43.3400 0001494 269.8607  90.2064 15.02538163122623
STARLINK-6362           
1 57350U 23099Y   25273.29741838  .00000541  00000+0  55144-4 0  9996
2 57350  43.0061  27.9656 0001934 252.9243 107.1387 15.02540643122131
STARLINK-6331           
1 57351U 23099Z   25273.08872992  .00001055  00000+0  93170-4 0  9992
2 57351  43.0050  41.1463 0001485 272.8053  87.2620 15.02546044121964
STARLINK-6297           
1 57352U 23099AA  25272.62598443  .00000091  00000+0  21818-4 0  9997
2 57352  43.0062  31.5307 0001553 278.5832  81.4834 15.02539663122033
STARLINK-6324           
1 57353U 23099AB  25273.08650408 -.00000018  00000+0  13774-4 0  9991
2 57353  43.0056  41.1278 0001846 258.1373 101.9263 15.02551294121969
STARLINK-6293           
1 57354U 23099AC  25272.35120390 -.00002025  00000+0 -13488-3 0  9995
2 57354  43.0079  32.9065 0001890 278.4386  81.6242 15.02528783121996
STARLINK-6276           
1 57355U 23099AD  25272.36340633  .00000170  00000+0  27635-4 0  9998
2 57355  43.0061  33.0010 0001778 281.5343  78.5299 15.02536387121999
STARLINK-6355           
1 57356U 23099AE  25271.81825361  .00003526  00000+0  27579-3 0  9998
2 57356  43.0045  35.7844 0001481 282.1496  77.9180 15.02558198121911
STARLINK-5600           
1 57357U 23099AF  25271.42716436  .00001070  00000+0  94253-4 0  9994
2 57357  43.0067  38.0140 0001616 275.3584  84.7074 15.02538745121850
STARLINK-6299           
1 57358U 23099AG  25272.34451349  .00003047  00000+0  24048-3 0  9996
2 57358  43.0082  32.8561 0002325 266.3471  93.7106 15.02547814122731
STARLINK-6347           
1 57359U 23099AH  25271.76288231  .00001356  00000+0  11547-3 0  9991
2 57359  43.0060  36.2337 0001664 280.2358  79.8297 15.02539683121900
STARLINK-6348           
1 57360U 23099AJ  25272.33787308  .00001215  00000+0  10496-3 0  9992
2 57360  43.0049  32.8056 0001564 273.3550  86.7113 15.02540094121996
STARLINK-6340           
1 57361U 23099AK  25272.67913728  .00001733  00000+0  14334-3 0  9997
2 57361  43.0035  31.0640 0000982 237.8588 122.2159 15.02541967122044
STARLINK-6343           
1 57362U 23099AL  25272.40102506  .00000257  00000+0  34116-4 0  9994
2 57362  43.0043  32.4170 0001134 261.8334  98.2380 15.02531840122006
STARLINK-6356           
1 57363U 23099AM  25272.67359441 -.00000557  00000+0 -26132-4 0  9990
2 57363  43.0036  31.0208 0001061 240.5596 119.5141 15.02540251122041
STARLINK-6338           
1 57364U 23099AN  25272.33346559 -.00002039  00000+0 -13601-3 0  9993
2 57364  43.0028  32.7686 0000580 250.6879 109.3901 15.02511247121999
STARLINK-5007           
1 57365U 23099AP  25272.72231201  .00000674  00000+0  64934-4 0  9991
2 57365  43.0068  30.5232 0001409 269.8794  90.1887 15.02539925122057
STARLINK-6174           
1 57366U 23099AQ  25272.65918499 -.00002100  00000+0 -14052-3 0  9998
2 57366  43.0046  30.9131 0001206 262.2038  97.8667 15.02517409122041
STARLINK-6215           
1 57367U 23099AR  25272.98514268  .00001549  00000+0  12967-3 0  9998
2 57367  43.0060  16.0314 0001645 281.4993  78.5665 15.02545154122992
STARLINK-6218           
1 57368U 23099AS  25272.72010010  .00000441  00000+0  47726-4 0  9999
2 57368  43.0039  30.5095 0001076 257.1904 102.8818 15.02531098122056
STARLINK-6168           
1 57369U 23099AT  25272.72897038  .00000529  00000+0  54258-4 0  9998
2 57369  43.0052  30.5809 0001729 273.6412  86.4233 15.02539145122056
STARLINK-5353           
1 57370U 23099AU  25271.64978969 -.00000647  00000+0 -32837-4 0  9995
2 57370  43.0023  36.2339 0000666 288.6869  71.3901 15.02541143121895
STARLINK-6032           
1 57371U 23099AV  25272.66027602  .00000015  00000+0  16175-4 0  9992
2 57371  43.0027  30.9190 0000862 252.9901 107.0846 15.02545918122042
STARLINK-5975           
1 57372U 23099AW  25273.30395869  .00000928  00000+0  83748-4 0  9991
2 57372  43.0026  27.1365 0000764 250.3261 109.7499 15.02539944122142
STARLINK-6370           
1 57373U 23099AX  25272.62820060 -.00000866  00000+0 -48992-4 0  9997
2 57373  43.0049  31.5268 0001382 257.8750 102.1938 15.02542628122037
STARLINK-6369           
1 57374U 23099AY  25272.33258142  .00002490  00000+0  19927-3 0  9990
2 57374  43.0046  19.7488 0001747 252.4114 107.6538 15.02549232122143
STARLINK-6363           
1 57375U 23099AZ  25272.64584320  .00000601  00000+0  59561-4 0  9996
2 57375  43.0049  30.8127 0001633 268.8599  91.2056 15.02537872122042
STARLINK-6367           
1 57376U 23099BA  25272.70233346  .00000186  00000+0  28882-4 0  9993
2 57376  43.0064  30.3760 0001919 268.4930  91.5693 15.02538940122058
STARLINK-6358           
1 57377U 23099BB  25272.37438173  .00001165  00000+0  10131-3 0  9997
2 57377  43.0072  32.2161 0002132 270.3141  89.7457 15.02533864122000
STARLINK-6364           
1 57378U 23099BC  25273.25908508  .00001705  00000+0  14129-3 0  9991
2 57378  43.0075   1.6674 0001627 289.4352  70.6314 15.02528727123178
STARLINK-6361           
1 57379U 23099BD  25273.30174528  .00012901  00000+0  96934-3 0  9999
2 57379  42.9999  27.1352 0000241 331.5807  28.5022 15.02497153122145
STARLINK-6366           
1 57380U 23099BE  25273.25797265  .00000730  00000+0  69066-4 0  9998
2 57380  43.0039   1.6472 0001001 260.1384  99.9346 15.02540492123165
STARLINK-6371           
1 57381U 23099BF  25272.29051957 -.00003117  00000+0 -21566-3 0  9999
2 57381  43.0043  20.2794 0001155 243.9776 116.0947 15.02551834122876
STARLINK-30240          
1 57404U 23102A   25272.34870338  .00000060  00000+0  19483-4 0  9996
2 57404  43.0040  45.7982 0001623 258.9248 101.1412 15.02542502121963
STARLINK-30192          
1 57405U 23102B   25272.67775605 -.00000395  00000+0 -14144-4 0  9996
2 57405  43.0063  43.9541 0002069 263.0063  97.0544 15.02537844122016
STARLINK-30195          
1 57406U 23102C   25273.07329818  .00003397  00000+0  26648-3 0  9997
2 57406  43.0017  41.7757 0001232 258.2337 101.8367 15.02528437122073
STARLINK-30207          
1 57407U 23102D   25272.37547370  .00003469  00000+0  27159-3 0  9993
2 57407  43.0044  32.2205 0001525 227.2168 132.8546 15.02554399122136
STARLINK-30205          
1 57408U 23102E   25272.73094344  .00001681  00000+0  13950-3 0  9990
2 57408  42.9989  43.5066 0000556 247.3743 112.7040 15.02526374122024
STARLINK-30222          
1 57409U 23102F   25272.72093169  .00006387  00000+0  48729-3 0  9994
2 57409  43.0022  43.4367 0001543 290.4439  69.6237 15.02545841122024
STARLINK-30172          
1 57410U 23102G   25272.39520095  .00000155  00000+0  26570-4 0  9990
2 57410  43.0040  45.2774 0001019 259.5640 100.5088 15.02536427121978
STARLINK-30214          
1 57411U 23102H   25272.36523616  .00007766  00000+0  58960-3 0  9992
2 57411  43.0049  45.0739 0001913 275.7652  84.2973 15.02519827121924
STARLINK-30182          
1 57412U 23102J   25272.45834960  .00000612  00000+0  60397-4 0  9991
2 57412  43.0056  44.9051 0002294 286.9071  73.1520 15.02537907121980
STARLINK-30191          
1 57413U 23102K   25273.27014797  .00000451  00000+0  25902-4 0  9995
2 57413  43.0015  12.6025 0001430 237.0992 122.9722 15.27591138122430
STARLINK-30193          
1 57414U 23102L   25272.64779038  .00002492  00000+0  19939-3 0  9991
2 57414  43.0019  43.7263 0000980 243.0470 117.0273 15.02546384122017
STARLINK-30208          
1 57415U 23102M   25271.78027438 -.00001431  00000+0 -90919-4 0  9998
2 57415  43.0007  48.4106 0001131 203.1051 156.9740 15.02521693121830
STARLINK-30224          
1 57416U 23102N   25271.84340933  .00002839  00000+0  22517-3 0  9993
2 57416  42.9996  48.0284 0001201 236.2874 123.7854 15.02535327121890
